[{"OBJECT_NAME":"STARLINK-5825","OBJECT_ID":"2023-028AU","EPOCH":"2026-03-09T21:39:59.898240","MEAN_MOTION":14.98334631,"ECCENTRICITY":0.00032006,"INCLINATION":70.0011,"RA_OF_ASC_NODE":204.0994,"ARG_OF_PERICENTER":268.1655,"MEAN_ANOMALY":91.9138,"EPHEMERIS_TYPE":0,"CLASSIFICATION_TYPE":"U","NORAD_CAT_ID":55783,"ELEMENT_SET_NO":999,"REV_AT_EPOCH":16705,"BSTAR":-0.00011912942,"MEAN_MOTION_DOT":-1.514e-5,"MEAN_MOTION_DDOT":0},{"OBJECT_NAME":"EZIE-B","OBJECT_ID":"2025-052AS","EPOCH":"2026-03-09T23:09:37.705536","MEAN_MOTION":14.96286279,"ECCENTRICITY":0.00040038,"INCLINATION":97.7009,"RA_OF_ASC_NODE":322.7783,"ARG_OF_PERICENTER":146.8572,"MEAN_ANOMALY":213.2901,"EPHEMERIS_TYPE":0,"CLASSIFICATION_TYPE":"U","NORAD_CAT_ID":63250,"ELEMENT_SET_NO":999,"REV_AT_EPOCH":5382,"BSTAR":0.00063815223,"MEAN_MOTION_DOT":7.158e-5,"MEAN_MOTION_DDOT":0}]
